{
    "links": {
        "self": "http://www.neowsapp.com/rest/v1/neo/3578921?api_key=iIulBulltgU6a56xZRHN4H3l9WmuAYTsLGpBGhQ2"
    },
    "id": "3578921",
    "neo_reference_id": "3578921",
    "name": "(2011 SR25)",
    "designation": "2011 SR25",
    "nasa_jpl_url": "http://ssd.jpl.nasa.gov/sbdb.cgi?sstr=3578921",
    "absolute_magnitude_h": 21.0,
    "estimated_diameter": {
        "kilometers": {
            "estimated_diameter_min": 0.1677084622,
            "estimated_diameter_max": 0.3750075218
        },
        "meters": {
            "estimated_diameter_min": 167.7084621628,
            "estimated_diameter_max": 375.0075217981
        },
        "miles": {
            "estimated_diameter_min": 0.1042091748,
            "estimated_diameter_max": 0.2330187988
        },
        "feet": {
            "estimated_diameter_min": 550.2246310023,
            "estimated_diameter_max": 1230.3396778159
        }
    },
    "is_potentially_hazardous_asteroid": false,
    "close_approach_data": [
        {
            "close_approach_date": "2004-08-26",
            "close_approach_date_full": "2004-Aug-26 22:07",
            "epoch_date_close_approach": 1093558020000,
            "relative_velocity": {
                "kilometers_per_second": "5.9164903405",
                "kilometers_per_hour": "21299.365225892",
                "miles_per_hour": "13234.5972427216"
            },
            "miss_distance": {
                "astronomical": "0.9792628931",
                "lunar": "380.9332654159",
                "kilometers": "146495642.977797697",
                "miles": "91028171.5140023386"
            },
            "orbiting_body": "Juptr"
        },
        {
            "close_approach_date": "2011-09-27",
            "close_approach_date_full": "2011-Sep-27 16:39",
            "epoch_date_close_approach": 1317141540000,
            "relative_velocity": {
                "kilometers_per_second": "15.2024487865",
                "kilometers_per_hour": "54728.815631283",
                "miles_per_hour": "34006.3576904492"
            },
            "miss_distance": {
                "astronomical": "0.1916710288",
                "lunar": "74.5600302032",
                "kilometers": "28673577.649188656",
                "miles": "17816934.9689532128"
            },
            "orbiting_body": "Earth"
        }
    ],
    "orbital_data": {
        "orbit_id": "19",
        "orbit_determination_date": "2017-04-06 08:52:46",
        "first_observation_date": "2011-09-22",
        "last_observation_date": "2011-10-27",
        "data_arc_in_days": 35,
        "observations_used": 114,
        "orbit_uncertainty": "6",
        "minimum_orbit_intersection": ".169407",
        "jupiter_tisserand_invariant": "2.892",
        "epoch_osculation": "2459000.5",
        "eccentricity": ".599127169397646",
        "semi_major_axis": "2.887116026452387",
        "inclination": "24.01368118762301",
        "ascending_node_longitude": "186.0712650333885",
        "orbital_period": "1791.821664081535",
        "perihelion_distance": "1.157366373801389",
        "perihelion_argument": "162.6803850529679",
        "aphelion_distance": "4.616865679103384",
        "perihelion_time": "2459405.926781976502",
        "mean_anomaly": "278.5445491382901",
        "mean_motion": ".2009128515501745",
        "equinox": "J2000",
        "orbit_class": {
            "orbit_class_type": "AMO",
            "orbit_class_description": "Near-Earth asteroid orbits similar to that of 1221 Amor",
            "orbit_class_range": "1.017 AU < q (perihelion) < 1.3 AU"
        }
    },
    "is_sentry_object": false
}